SCD 1                   
1 22490U 93009B   18114.57195464  .00000236  00000-0  15070-4 0  9992
2 22490  24.9688 186.2007 0043124  22.3354 116.9019 14.44520642330671
TECHSAT 1B (GO-32)      
1 25397U 98043D   18113.91438702 -.00000004  00000-0  17404-4 0  9993
2 25397  98.6459  55.2631 0001716 135.7765 224.3551 14.23644004 27784
SCD 2                   
1 25504U 98060A   18113.92414462  .00000233  00000-0  14896-4 0  9995
2 25504  24.9965  35.2881 0017342  45.6971  21.3356 14.44039149 29908
LANDSAT 7               
1 25682U 99020A   18114.19737503  .00000050  00000-0  20972-4 0  9992
2 25682  98.1717 185.4129 0001357  99.2508 260.8839 14.57131316 11883
DLR-TUBSAT              
1 25757U 99029B   18114.35425046 -.00000030  00000-0  39312-5 0  9996
2 25757  98.4091  31.3392 0015718  70.6857 289.6036 14.51381530  1618
QUIKSCAT                
1 25789U 99034A   18114.15893178 -.00000009  00000-0  13965-4 0  9991
2 25789  98.6055 302.8627 0001261 128.3599 231.7695 14.27322741981555
TERRA                   
1 25994U 99068A   18114.27843471  .00000047  00000-0  20515-4 0  9990
2 25994  98.2058 189.9211 0000788  99.4795 260.6483 14.57096447975973
MAROC-TUBSAT            
1 27004U 01056D   18113.94583365 -.00000019  00000-0  28354-4 0  9999
2 27004  99.4012 250.9027 0019029 248.8952 221.3768 13.70128355818601
AQUA                    
1 27424U 02022A   18113.96923913  .00000105  00000-0  33229-4 0  9990
2 27424  98.1987  56.0035 0000690 186.6489 251.3130 14.57127921849486
IRS-P6 (RESOURCESAT-1)  
1 28051U 03046A   18114.47170585  .00000019  00000-0  22094-4 0  9992
2 28051  98.5549 192.2797 0057317 192.8275 167.1461 14.34131148753878
SHIYAN 1 (SY-1)         
1 28220U 04012A   18113.82862139  .00001064  00000-0  91422-4 0  9997
2 28220  97.7413  72.0345 0011544 164.2647 195.8936 14.99528626762977
FORMOSAT-2 (ROCSAT 2)   
1 28254U 04018A   18114.39838142  .00000107  00000-0  10000-3 0  9999
2 28254  98.8319 169.4638 0001674  77.8712 339.9618 14.00723977712164
AURA                    
1 28376U 04026A   18113.89118601  .00000105  00000-0  33325-4 0  9992
2 28376  98.1979  58.0893 0001039 110.4483 249.6827 14.57119949732525
IRS-P5 (CARTOSAT-1)     
1 28649U 05017A   18114.51058003  .00000146  00000-0  24091-4 0  9990
2 28649  97.8252 188.4357 0003492  96.8893 263.2727 14.83470201702133
SINAH 1                 
1 28893U 05043D   18113.92245545  .00000019  00000-0  12892-4 0  9998
2 28893  97.9140 262.8944 0013930 251.8153 108.1532 14.61471877665584
EROS B                  
1 29079U 06014A   18114.53401914  .00002519  00000-0  11154-3 0  9992
2 29079  97.3799 234.2812 0004054 144.6189 277.0830 15.22547335665743
RESURS-DK 1             
1 29228U 06021A   18114.46459110  .00000100  00000-0  14982-4 0  9996
2 29228  69.9372  26.0241 0007253 242.0406 118.0021 15.02309720654840
ARIRANG-2 (KOMPSAT-2)   
1 29268U 06031A   18114.58616470  .00000082  00000-0  25479-4 0  9990
2 29268  98.0729  12.2753 0019391 105.4629 254.8726 14.62347007626501
LAPAN-TUBSAT            
1 29709U 07001A   18114.49895228  .00000041  00000-0  11602-4 0  9996
2 29709  97.7494  83.5351 0013364 148.6785 211.5222 14.82120054610098
CARTOSAT-2 (IRS-P7)     
1 29710U 07001B   18114.53101059  .00000016  00000-0  90999-5 0  9994
2 29710  97.8804 175.1166 0000911 147.8527 212.2754 14.78710128609208
HAIYANG-1B              
1 31113U 07010A   18114.53727308 -.00000012  00000-0  12134-4 0  9996
2 31113  98.5121 168.7401 0014281  13.2854 346.8707 14.30195126575973
COSMO-SKYMED 1          
1 31598U 07023A   18114.53235984 -.00000019  00000-0  42161-5 0  9992
2 31598  97.8938 298.8363 0001548  88.1277 272.0137 14.82150677588567
TERRASAR-X              
1 31698U 07026A   18113.09107382 -.00000033  00000-0  16222-5 0  9991
2 31698  97.4455 121.3248 0001872  70.4889   4.3903 15.19149592601921
WORLDVIEW-1 (WV-1)      
1 32060U 07041A   18114.32853610  .00001184  00000-0  51035-4 0  9998
2 32060  97.3838 234.7088 0002315 106.4008 311.8166 15.24498429589650
YAOGAN 3                
1 32289U 07055A   18114.39909775  .00000389  00000-0  57271-4 0  9991
2 32289  98.0075 120.7338 0001720  75.2810 284.8595 14.80891099564793
COSMO-SKYMED 2          
1 32376U 07059A   18114.49855216 -.00000917  00000-0 -10860-3 0  9994
2 32376  97.8940 298.7987 0001589  85.4154 274.7229 14.82151198561308
RADARSAT-2              
1 32382U 07061A   18114.55997649  .00000121  00000-0  63724-4 0  9991
2 32382  98.5777 122.6136 0001266  86.7485  74.0296 14.29985042540794
CARTOSAT-2A             
1 32783U 08021A   18114.37335610 -.00000102  00000-0 -68855-5 0  9999
2 32783  97.8814 175.0959 0013904  36.4774 323.7377 14.78710012539129
JASON-2 (OSTM)          
1 33105U 08032A   18114.54756065 -.00000008  00000-0  21440-3 0  9991
2 33105  66.0411 187.4792 0008125 272.3921 184.3628 12.87625722460679
RAPIDEYE 2              
1 33312U 08040A   18114.50681529  .00000047  00000-0  12897-4 0  9997
2 33312  97.7876 191.7332 0013998  60.4883 299.7733 14.79875774521415
RAPIDEYE 5              
1 33313U 08040B   18114.53018823  .00000094  00000-0  19191-4 0  9998
2 33313  97.7979 190.1488 0015399 297.5504  62.4146 14.79875259521360
RAPIDEYE 1              
1 33314U 08040C   18114.51874049  .00000083  00000-0  17762-4 0  9997
2 33314  97.7895 191.4370 0025445  72.5755 287.8241 14.79876868521405
RAPIDEYE 3              
1 33315U 08040D   18114.48695319  .00000041  00000-0  12162-4 0  9998
2 33315  97.8004 189.8851 0012796  16.4620 343.7007 14.79875442521361
RAPIDEYE 4              
1 33316U 08040E   18114.47443283  .00000064  00000-0  15177-4 0  9993
2 33316  97.8030 189.5717 0010644 320.8668  39.1774 14.79873565521353
HUANJING 1A (HJ-1A)     
1 33320U 08041A   18114.50265460  .00000185  00000-0  33447-4 0  9996
2 33320  97.8925 178.3408 0027498  99.1010 261.3315 14.76912567518737
HUANJING 1B (HJ-1B)     
1 33321U 08041B   18114.55924025  .00000194  00000-0  34481-4 0  9990
2 33321  97.8982 179.8584 0036001 115.4734 245.0219 14.77001610518738
GEOEYE 1                
1 33331U 08042A   18114.19423513  .00000052  00000-0  18999-4 0  9997
2 33331  98.1328 189.5524 0009577  12.2630 347.8784 14.64239727514615
THEOS                   
1 33396U 08049A   18114.53596631  .00000179  00000-0  10494-3 0  9996
2 33396  98.7346 182.9997 0001295  97.5735  13.7267 14.20017352495662
COSMO-SKYMED 3          
1 33412U 08054A   18114.55344443  .00000332  00000-0  48238-4 0  9994
2 33412  97.8941 298.8540 0001626  91.2766 268.8635 14.82153296513777
YAOGAN 4                
1 33446U 08061A   18114.53405585  .00000064  00000-0  15920-4 0  9996
2 33446  97.6221  98.6464 0016253  14.2522 345.9144 14.76756691505977
GOSAT (IBUKI)           
1 33492U 09002A   18114.55542741  .00000065  00000-0  20022-4 0  9991
2 33492  98.1435 229.0238 0001612  71.9046 288.2335 14.67513955495494
YAOGAN 6                
1 34839U 09021A   18114.56264531  .00000513  00000-0  22379-4 0  9992
2 34839  97.0999 155.5175 0026846 296.7611  63.0882 15.26130902500066
DEIMOS-1                
1 35681U 09041A   18114.32325957 -.00000068  00000-0 -31947-5 0  9993
2 35681  97.9164   3.8890 0002786  67.7496 292.3990 14.71726735468905
DUBAISAT-1              
1 35682U 09041B   18114.38106131  .00000129  00000-0  30047-4 0  9996
2 35682  97.7630 324.8509 0010144 234.9157 125.1091 14.68665040467882
OCEANSAT-2              
1 35931U 09051A   18113.85797974  .00000085  00000-0  32778-4 0  9990
2 35931  98.3024 209.5209 0001538 351.3410   8.7758 14.50855494454407
WORLDVIEW-2 (WV-2)      
1 35946U 09055A   18114.19394956 -.00000044  00000-0 -24942-6 0  9994
2 35946  98.4703 191.7097 0002051 149.9987 210.1304 14.37588282448194
SMOS                    
1 36036U 09059A   18114.15134870  .00000084  00000-0  40668-4 0  9995
2 36036  98.4455 302.4151 0001455  88.6285 271.5069 14.39772343445357
YAOGAN 7                
1 36110U 09069A   18114.54658293  .00000087  00000-0  20835-4 0  9999
2 36110  98.2462 283.6606 0023744 197.0184 163.0228 14.75121082450782
TANDEM-X                
1 36605U 10030A   18112.96152259 -.00000021  00000-0  21967-5 0  9990
2 36605  97.4470 121.1990 0001836  78.8146   7.9956 15.19149680434649
CARTOSAT-2B             
1 36795U 10035A   18114.41044727  .00000101  00000-0  20732-4 0  9993
2 36795  97.8791 174.8659 0016156 101.3822 258.9209 14.78692720420174
YAOGAN 10               
1 36834U 10038A   18114.35842709  .00000064  00000-0  15136-4 0  9999
2 36834  97.9510 112.7770 0001687  70.0456 290.0941 14.80848738416531
COSMO-SKYMED 4          
1 37216U 10060A   18114.51546632  .00000011  00000-0  79955-5 0  9995
2 37216  97.8928 298.8148 0001532  84.2503 275.8897 14.82153818403854
HAIYANG 2A              
1 37781U 11043A   18114.55025762 -.00000034  00000-0  94227-5 0  9999
2 37781  99.3260 125.6016 0000225 119.2348 240.8834 13.78716438336880
RASAT                   
1 37791U 11044D   18114.31528651  .00000042  00000-0  16893-4 0  9990
2 37791  98.1237 207.5624 0020840 219.9131 140.0544 14.64660489357310
MEGHA-TROPIQUES         
1 37838U 11058A   18113.93235441  .00000294  00000-0  16754-4 0  9991
2 37838  19.9779  71.5138 0009682 227.8350 132.1231 14.09679320269764
SRMSAT                  
1 37841U 11058D   18114.26590837  .00000293  00000-0  15984-4 0  9998
2 37841  19.9727  52.3047 0011717 257.7306 258.1080 14.10603990337266
YAOGAN 13               
1 37941U 11072A   18114.52809057  .00001107  00000-0  57952-4 0  9997
2 37941  97.5022  44.3824 0001942 102.7607 311.7405 15.17912408354893
PLEIADES 1A             
1 38012U 11076F   18114.51971027  .00000008  00000-0  11473-4 0  9994
2 38012  98.2016 190.1401 0001611  71.0364 289.1013 14.58548158338241
ZIYUAN 1-02C (ZY 1-02C) 
1 38038U 11079A   18114.36433526  .00000030  00000-0  25027-4 0  9990
2 38038  98.2981 172.3926 0000783  67.3215 292.8054 14.35470453332142
